GLOBALSTAR M063         
1 26081U 00008A   24126.41210767 -.00000065  00000+0  25876-3 0  9990
2 26081  51.9930 105.4872 0004559 255.1251 272.6520 11.86153960109180
GLOBALSTAR M060         
1 26083U 00008C   24126.44079899 -.00000118  00000+0 -26899-3 0  9990
2 26083  51.9994 117.1320 0003459  15.5525 151.2708 12.17632373102694
GLOBALSTAR M064         
1 26084U 00008D   24126.59456480 -.00000063  00000+0  29482-3 0  9991
2 26084  52.0015 208.6443 0000985 359.3702   0.7130 11.88518593118632
GLOBALSTAR M065         
1 31571U 07020A   24126.11865128 -.00000062  00000+0  23651-3 0  9991
2 31571  51.9916  28.2540 0010611 122.1564  25.2683 12.61968867781883
GLOBALSTAR M069         
1 31573U 07020C   24126.04778701 -.00000054  00000+0  27533-3 0  9999
2 31573  51.9965 344.3538 0001008  80.7643  83.4468 12.62271628783001
GLOBALSTAR M072         
1 31574U 07020D   24126.36161706 -.00000084  00000+0  11131-3 0  9996
2 31574  52.0083  79.2925 0000465  16.8369 154.5165 12.62271195781315
